OBJECT_NAME,OBJECT_ID,EPOCH,MEAN_MOTION,ECCENTRICITY,INCLINATION,RA_OF_ASC_NODE,ARG_OF_PERICENTER,MEAN_ANOMALY,EPHEMERIS_TYPE,CLASSIFICATION_TYPE,NORAD_CAT_ID,ELEMENT_SET_NO,REV_AT_EPOCH,BSTAR,MEAN_MOTION_DOT,MEAN_MOTION_DDOT
SL-16 R/B,1994-077B,2026-07-22T00:41:10.121568,14.15576421,.00042068,70.9822,69.8627,298.1851,61.8847,0,U,23405,999,63524,.16456701E-3,.274E-5,0
ARIANE 40+ R/B,1995-021B,2026-07-22T03:33:48.602880,14.39850257,.00079455,98.4394,272.7155,99.0366,324.9411,0,U,23561,999,63859,.68921556E-4,.173E-5,0
SL-16 R/B,1995-058B,2026-07-22T04:24:02.589120,14.15512924,.00147489,71.0204,257.8834,273.9015,86.0422,0,U,23705,999,58688,.14900152E-3,.244E-5,0
SL-16 R/B,1996-051B,2026-07-22T03:47:08.383488,14.12459351,.00182617,70.7639,250.6429,289.1016,70.8126,0,U,24298,999,54063,.10810686E-3,.151E-5,0
ORBVIEW 2 (SEASTAR),1997-037A,2026-07-22T01:52:59.522016,14.35569218,.00028112,98.8722,11.0705,46.6986,313.4432,0,U,24883,999,52775,.79318778E-4,.182E-5,0
SL-16 R/B,1998-043G,2026-07-21T07:42:55.077120,14.26073421,.00097221,98.8382,156.7780,353.8516,6.2542,0,U,25400,999,45803,.29520565E-4,.25E-6,0
SL-16 R/B,1998-045B,2026-07-22T04:46:28.401312,14.16205912,.00078086,71.0098,258.6997,196.4099,163.6773,0,U,25407,999,44614,.12020138E-3,.19E-5,0
ISS (ZARYA),1998-067A,2026-07-22T03:40:37.502112,15.49090344,.00068832,51.6313,127.0562,324.3803,35.6725,0,U,25544,999,57717,.16818085E-3,.8859E-4,0
CZ-4B R/B,1999-025C,2026-07-22T03:08:06.114912,14.18288478,.00363062,98.6467,244.0866,319.3879,107.0979,0,U,25732,999,40722,.22021919E-4,.2E-7,0
OKEAN-O,1999-039A,2026-07-22T03:42:36.876672,14.80502704,.00009029,97.9294,261.5476,101.6331,258.4983,0,U,25860,999,45428,.59724261E-4,.405E-5,0
SL-16 R/B,1999-039B,2026-07-22T03:27:17.466624,14.81875648,.00148791,97.9816,261.9036,175.7073,184.4270,0,U,25861,999,45677,.54794248E-4,.38E-5,0
DELTA 2 R/B,1999-041E,2026-07-22T01:41:22.476192,14.12105356,.05014803,51.7615,124.4233,25.0512,337.3876,0,U,25876,999,38201,.26388143E-3,.1402E-4,0
HELIOS 1B,1999-064A,2026-07-21T16:10:59.148480,14.88086194,.00016488,98.1575,108.8078,46.9689,313.1664,0,U,25977,999,70518,.10722398E-3,.928E-5,0
TERRA,1999-068A,2026-07-22T06:54:15.258240,14.61127534,.00036359,97.9436,251.4387,108.9673,322.8872,0,U,25994,999,41473,.63829514E-4,.27E-5,0
SL-16 R/B,2000-006B,2026-07-22T04:17:04.278336,14.15840035,.00175028,71.0011,175.0494,330.2550,29.7577,0,U,26070,999,36759,.18269294E-3,.312E-5,0
TITAN 4B R/B,2000-047B,2026-07-22T05:26:05.267904,15.10358511,.00456824,67.9875,21.9303,251.6988,107.9189,0,U,26474,999,41322,.13467555E-3,.2128E-4,0
ENVISAT,2002-009A,2026-07-22T07:31:10.238016,14.39071895,.00013072,98.3849,153.8518,82.4154,88.5765,0,U,27386,999,27853,.32224828E-4,.57E-6,0
IDEFIX & ARIANE 42P R/B,2002-021B,2026-07-22T07:08:44.960640,14.31096050,.00123179,98.5941,140.4014,146.1623,214.0349,0,U,27422,999,26327,.74228278E-4,.152E-5,0
AQUA,2002-022A,2026-07-22T05:45:57.491136,14.62135699,.00013385,98.4302,173.2289,102.3212,22.0983,0,U,27424,999,28839,.12389185E-3,.574E-5,0
CZ-4B R/B,2002-024C,2026-07-22T02:40:39.548640,14.14568991,.00501195,98.8678,255.7012,2.3964,59.3388,0,U,27432,999,24824,.28243894E-4,.1E-6,0
MIDORI II (ADEOS-II),2002-056A,2026-07-22T06:41:15.026496,14.29365534,.0001171,98.7899,162.8411,31.5357,328.5895,0,U,27597,999,22952,.84928649E-4,.171E-5,0
H-2A R/B,2002-056E,2026-07-22T02:28:39.950688,14.33836807,.00712093,98.3332,158.5087,120.6072,250.3803,0,U,27601,999,23337,.93947771E-4,.228E-5,0
CZ-4B R/B,2003-049C,2026-07-22T00:36:51.309504,14.55119443,.00480552,98.6915,203.2620,180.3319,179.7853,0,U,28059,999,20613,.72749717E-4,.267E-5,0
CZ-2C R/B,2004-012C,2026-07-22T04:26:49.228800,15.86874711,.00104433,97.7020,283.1270,170.1358,190.0119,0,U,28222,999,22543,.65144822E-3,.169717E-2,0
SL-16 R/B,2004-021B,2026-07-22T07:19:19.444224,14.14615590,.00060536,71.0027,309.9883,218.3771,141.6922,0,U,28353,999,14187,-.80882389E-4,-.203E-5,0
CZ-4B R/B,2004-035C,2026-07-22T02:28:13.180512,15.31057208,.00298454,97.3356,235.7906,207.2050,152.7629,0,U,28415,999,20046,.24093665E-3,.725E-4,0
CZ-2C R/B,2004-046B,2026-07-22T04:18:59.149728,14.27034903,.01404552,98.1907,109.7672,116.8570,244.7050,0,U,28480,999,12768,.51111566E-4,.98E-6,0
ARIANE 5 R/B,2004-049H,2026-07-22T02:09:05.086944,14.85484930,.00824939,98.2748,16.6978,275.5835,83.5975,0,U,28499,999,16574,.61959494E-4,.501E-5,0
CZ-2D R/B,2005-024B,2026-07-22T07:17:23.936064,15.73453268,.00036499,97.3474,224.5868,175.8311,184.2984,0,U,28738,999,16085,.50820856E-3,.7084E-3,0
ALOS (DAICHI),2006-002A,2026-07-21T19:16:41.691648,14.70111343,.00009788,98.1341,158.2680,109.3654,250.7658,0,U,28931,999,9318,.14227069E-3,.806E-5,0
