SL-16 R/B               
1 23405U 94077B   26203.02858937  .00000274  00000+0  16457-3 0  9994
2 23405  70.9822  69.8627 0004206 298.1851  61.8847 14.15576421635248
ARIANE 40+ R/B          
1 23561U 95021B   26203.14847920  .00000173  00000+0  68922-4 0  9993
2 23561  98.4394 272.7155 0007945  99.0366 324.9411 14.39850257638592
SL-16 R/B               
1 23705U 95058B   26203.18336330  .00000244  00000+0  14900-3 0  9990
2 23705  71.0204 257.8834 0014748 273.9015  86.0422 14.15512924586882
SL-16 R/B               
1 24298U 96051B   26203.15773592  .00000151  00000+0  10811-3 0  9998
2 24298  70.7639 250.6429 0018261 289.1016  70.8126 14.12459351540639
ORBVIEW 2 (SEASTAR)     
1 24883U 97037A   26203.07846669  .00000182  00000+0  79319-4 0  9993
2 24883  98.8722  11.0705 0002811  46.6986 313.4432 14.35569218527758
SL-16 R/B               
1 25400U 98043G   26202.32147080  .00000025  00000+0  29521-4 0  9991
2 25400  98.8382 156.7780 0009722 353.8516   6.2542 14.26073421458035
SL-16 R/B               
1 25407U 98045B   26203.19893983  .00000190  00000+0  12020-3 0  9994
2 25407  71.0098 258.6997 0007808 196.4099 163.6773 14.16205912446145
ISS (ZARYA)             
1 25544U 98067A   26203.15321183  .00008859  00000+0  16818-3 0  9993
2 25544  51.6313 127.0562 0006883 324.3803  35.6725 15.49090344577176
CZ-4B R/B               
1 25732U 99025C   26203.13062633  .00000002  00000+0  22022-4 0  9994
2 25732  98.6467 244.0866 0036306 319.3879 107.0979 14.18288478407228
OKEAN-O                 
1 25860U 99039A   26203.15459348  .00000405  00000+0  59724-4 0  9992
2 25860  97.9294 261.5476 0000902 101.6331 258.4983 14.80502704454283
SL-16 R/B               
1 25861U 99039B   26203.14395216  .00000380  00000+0  54794-4 0  9999
2 25861  97.9816 261.9036 0014879 175.7073 184.4270 14.81875648456777
DELTA 2 R/B             
1 25876U 99041E   26203.07039903  .00001402  00000+0  26388-3 0  9991
2 25876  51.7615 124.4233 0501480  25.0512 337.3876 14.12105356382016
HELIOS 1B               
1 25977U 99064A   26202.67429570  .00000928  00000+0  10722-3 0  9993
2 25977  98.1575 108.8078 0001648  46.9689 313.1664 14.88086194705184
TERRA                   
1 25994U 99068A   26203.28767660  .00000270  00000+0  63830-4 0  9998
2 25994  97.9436 251.4387 0003635 108.9673 322.8872 14.61127534414735
SL-16 R/B               
1 26070U 00006B   26203.17852174  .00000312  00000+0  18269-3 0  9993
2 26070  71.0011 175.0494 0017502 330.2550  29.7577 14.15840035367598
TITAN 4B R/B            
1 26474U 00047B   26203.22644986  .00002128  00000+0  13468-3 0  9995
2 26474  67.9875  21.9303 0045682 251.6988 107.9189 15.10358511413226
ENVISAT                 
1 27386U 02009A   26203.31331294  .00000057  00000+0  32225-4 0  9995
2 27386  98.3849 153.8518 0001307  82.4154  88.5765 14.39071895278536
IDEFIX & ARIANE 42P R/B 
1 27422U 02021B   26203.29774260  .00000152  00000+0  74228-4 0  9996
2 27422  98.5941 140.4014 0012317 146.1623 214.0349 14.31096050263278
AQUA                    
1 27424U 02022A   26203.24024874  .00000574  00000+0  12389-3 0  9990
2 27424  98.4302 173.2289 0001338 102.3212  22.0983 14.62135699288395
CZ-4B R/B               
1 27432U 02024C   26203.11156885  .00000010  00000+0  28244-4 0  9998
2 27432  98.8678 255.7012 0050119   2.3964  59.3388 14.14568991248242
MIDORI II (ADEOS-II)    
1 27597U 02056A   26203.27864614  .00000171  00000+0  84929-4 0  9998
2 27597  98.7899 162.8411 0001171  31.5357 328.5895 14.29365534229521
H-2A R/B                
1 27601U 02056E   26203.10324017  .00000228  00000+0  93948-4 0  9998
2 27601  98.3332 158.5087 0071209 120.6072 250.3803 14.33836807233379
CZ-4B R/B               
1 28059U 03049C   26203.02559386  .00000267  00000+0  72750-4 0  9990
2 28059  98.6915 203.2620 0048055 180.3319 179.7853 14.55119443206135
CZ-2C R/B               
1 28222U 04012C   26203.18529200  .00169717  00000+0  65145-3 0  9997
2 28222  97.7020 283.1270 0010443 170.1358 190.0119 15.86874711225438
SL-16 R/B               
1 28353U 04021B   26203.30508616 -.00000203  00000+0 -80882-4 0  9996
2 28353  71.0027 309.9883 0006053 218.3771 141.6922 14.14615590141875
CZ-4B R/B               
1 28415U 04035C   26203.10293033  .00007250  00000+0  24094-3 0  9991
2 28415  97.3356 235.7906 0029845 207.2050 152.7629 15.31057208200467
CZ-2C R/B               
1 28480U 04046B   26203.17985127  .00000098  00000+0  51112-4 0  9999
2 28480  98.1907 109.7672 0140455 116.8570 244.7050 14.27034903127686
ARIANE 5 R/B            
1 28499U 04049H   26203.08964221  .00000501  00000+0  61959-4 0  9993
2 28499  98.2748  16.6978 0082493 275.5835  83.5975 14.85484930165746
CZ-2D R/B               
1 28738U 05024B   26203.30374926  .00070840  00000+0  50821-3 0  9993
2 28738  97.3474 224.5868 0003649 175.8311 184.2984 15.73453268160857
ALOS (DAICHI)           
1 28931U 06002A   26202.80326032  .00000806  00000+0  14227-3 0  9999
2 28931  98.1341 158.2680 0000978 109.3654 250.7658 14.70111343 93182
